{"fetched_at":"2026-07-17T17:38:34.954Z","source":"https://celestrak.org/NORAD/elements/gp.php?NAME=SENTINEL&FORMAT=JSON","constellation":"sentinel-2","records":[{"OBJECT_NAME":"SENTINEL-2A","OBJECT_ID":"2015-028A","EPOCH":"2026-07-17T06:49:52.190976","CLASSIFICATION_TYPE":"U","MEAN_MOTION":14.3081404,"ECCENTRICITY":0.00012816,"INCLINATION":98.5679,"RA_OF_ASC_NODE":272.7076,"ARG_OF_PERICENTER":95.4745,"MEAN_ANOMALY":264.6584,"EPHEMERIS_TYPE":0,"NORAD_CAT_ID":40697,"ELEMENT_SET_NO":999,"REV_AT_EPOCH":57803,"BSTAR":-0.000052036283,"MEAN_MOTION_DOT":-0.0000018,"MEAN_MOTION_DDOT":0},{"OBJECT_NAME":"SENTINEL-2B","OBJECT_ID":"2017-013A","EPOCH":"2026-07-17T06:39:30.955104","CLASSIFICATION_TYPE":"U","MEAN_MOTION":14.30814908,"ECCENTRICITY":0.00011971,"INCLINATION":98.5686,"RA_OF_ASC_NODE":272.6258,"ARG_OF_PERICENTER":91.3599,"MEAN_ANOMALY":268.7721,"EPHEMERIS_TYPE":0,"NORAD_CAT_ID":42063,"ELEMENT_SET_NO":999,"REV_AT_EPOCH":48894,"BSTAR":-0.000038975161,"MEAN_MOTION_DOT":-0.00000146,"MEAN_MOTION_DDOT":0},{"OBJECT_NAME":"SENTINEL-2C","OBJECT_ID":"2024-157A","EPOCH":"2026-07-17T04:08:29.287680","CLASSIFICATION_TYPE":"U","MEAN_MOTION":14.30816028,"ECCENTRICITY":0.00009962,"INCLINATION":98.5684,"RA_OF_ASC_NODE":272.5288,"ARG_OF_PERICENTER":104.2844,"MEAN_ANOMALY":255.845,"EPHEMERIS_TYPE":0,"NORAD_CAT_ID":60989,"ELEMENT_SET_NO":999,"REV_AT_EPOCH":9727,"BSTAR":0.000035920395,"MEAN_MOTION_DOT":5.1e-7,"MEAN_MOTION_DDOT":0}]}
